{"type": "FeatureCollection", "features": [ {"type": "Feature", "properties": {"norad_id": 30283, "name": "FENGYUN 1C DEB", "group": "fengyun-1c-debris", "lat": -38.33239201822821, "lon": 147.54108646049076, "alt_km": 1018.6693024559145, "timestamp": "2025-12-06T18:50:10.443635+00:00", "meta": {"OBJECT_NAME": "FENGYUN 1C DEB", "OBJECT_ID": "1999-025YU", "EPOCH": "2025-12-06T05:55:09.899040", "MEAN_MOTION": 14.01972642, "ECCENTRICITY": 0.01852421, "INCLINATION": 98.8672, "RA_OF_ASC_NODE": 334.1075, "ARG_OF_PERICENTER": 61.2936, "MEAN_ANOMALY": 321.8676, "EPHEMERIS_TYPE": 0, "CLASSIFICATION_TYPE": "U", "NORAD_CAT_ID": 30283, "ELEMENT_SET_NO": 999, "REV_AT_EPOCH": 96600, "BSTAR": 0.00011913213, "MEAN_MOTION_DOT": 1.69e-06, "MEAN_MOTION_DDOT": 0}, "tle": {"line1": "1 30283U 99025YU  25340.24664235  .00000169  00000+0  11913-3 0  9990", "line2": "2 30283  98.8672 334.1075 0185242  61.2936 321.8676 14.01972642966000"}}, "geometry": {"type": "Point", "coordinates": [147.54108646049076, -38.33239201822821]}}, {"type": "Feature", "properties": {"norad_id": 30284, "name": "FENGYUN 1C DEB", "group": "fengyun-1c-debris", "lat": -45.563227735439156, "lon": -139.777627921077, "alt_km": 807.5805036968359, "timestamp": "2025-12-06T18:50:10.443646+00:00", "meta": {"OBJECT_NAME": "FENGYUN 1C DEB", "OBJECT_ID": "1999-025YV", "EPOCH": "2025-12-05T21:52:32.352384", "MEAN_MOTION": 14.286862, "ECCENTRICITY": 0.00380739, "INCLINATION": 98.7208, "RA_OF_ASC_NODE": 48.3556, "ARG_OF_PERICENTER": 128.4063, "MEAN_ANOMALY": 287.9469, "EPHEMERIS_TYPE": 0, "CLASSIFICATION_TYPE": "U", "NORAD_CAT_ID": 30284, "ELEMENT_SET_NO": 999, "REV_AT_EPOCH": 97418, "BSTAR": 0.0026611009, "MEAN_MOTION_DOT": 6.704e-05, "MEAN_MOTION_DDOT": 0}, "tle": {"line1": "1 30284U 99025YV  25339.91148556  .00006704  00000+0  26611-2 0  9997", "line2": "2 30284  98.7208  48.3556 0038073 128.4063 287.9469 14.28686200974180"}}, "geometry": {"type": "Point", "coordinates": [-139.777627921077, -45.563227735439156]}}, {"type": "Feature", "properties": {"norad_id": 30286, "name": "FENGYUN 1C DEB", "group": "fengyun-1c-debris", "lat": -77.299057409293, "lon": 28.058092780612153, "alt_km": 887.0247667793274, "timestamp": "2025-12-06T18:50:10.443656+00:00", "meta": {"OBJECT_NAME": "FENGYUN 1C DEB", "OBJECT_ID": "1999-025YX", "EPOCH": "2025-12-06T00:51:10.353600", "MEAN_MOTION": 14.12719846, "ECCENTRICITY": 0.0064438, "INCLINATION": 98.69, "RA_OF_ASC_NODE": 344.5972, "ARG_OF_PERICENTER": 151.6591, "MEAN_ANOMALY": 278.4023, "EPHEMERIS_TYPE": 0, "CLASSIFICATION_TYPE": "U", "NORAD_CAT_ID": 30286, "ELEMENT_SET_NO": 999, "REV_AT_EPOCH": 97364, "BSTAR": 0.00015769374, "MEAN_MOTION_DOT": 2.56e-06, "MEAN_MOTION_DDOT": 0}, "tle": {"line1": "1 30286U 99025YX  25340.03553650  .00000256  00000+0  15769-3 0  9998", "line2": "2 30286  98.6900 344.5972 0064438 151.6591 278.4023 14.12719846973648"}}, "geometry": {"type": "Point", "coordinates": [28.058092780612153, -77.299057409293]}}, {"type": "Feature", "properties": {"norad_id": 30287, "name": "FENGYUN 1C DEB", "group": "fengyun-1c-debris", "lat": -3.8402300319221183, "lon": 16.18950910333379, "alt_km": 745.3662212156705, "timestamp": "2025-12-06T18:50:10.443667+00:00", "meta": {"OBJECT_NAME": "FENGYUN 1C DEB", "OBJECT_ID": "1999-025YY", "EPOCH": "2025-12-06T01:26:32.286624", "MEAN_MOTION": 13.68559199, "ECCENTRICITY": 0.04137044, "INCLINATION": 98.6381, "RA_OF_ASC_NODE": 14.9536, "ARG_OF_PERICENTER": 30.0781, "MEAN_ANOMALY": 359.8243, "EPHEMERIS_TYPE": 0, "CLASSIFICATION_TYPE": "U", "NORAD_CAT_ID": 30287, "ELEMENT_SET_NO": 999, "REV_AT_EPOCH": 93767, "BSTAR": 0.0016877563, "MEAN_MOTION_DOT": 2.6e-05, "MEAN_MOTION_DDOT": 0}, "tle": {"line1": "1 30287U 99025YY  25340.06009591  .00002600  00000+0  16878-2 0  9998", "line2": "2 30287  98.6381  14.9536 0413704  30.0781 359.8243 13.68559199937675"}}, "geometry": {"type": "Point", "coordinates": [16.18950910333379, -3.8402300319221183]}}, {"type": "Feature", "properties": {"norad_id": 30288, "name": "FENGYUN 1C DEB", "group": "fengyun-1c-debris", "lat": -11.335399330246915, "lon": 63.8424322841364, "alt_km": 773.3342439362714, "timestamp": "2025-12-06T18:50:10.443677+00:00", "meta": {"OBJECT_NAME": "FENGYUN 1C DEB", "OBJECT_ID": "1999-025YZ", "EPOCH": "2025-12-06T03:56:24.427968", "MEAN_MOTION": 14.32488273, "ECCENTRICITY": 0.00201951, "INCLINATION": 99.3959, "RA_OF_ASC_NODE": 61.2682, "ARG_OF_PERICENTER": 342.274, "MEAN_ANOMALY": 47.3189, "EPHEMERIS_TYPE": 0, "CLASSIFICATION_TYPE": "U", "NORAD_CAT_ID": 30288, "ELEMENT_SET_NO": 999, "REV_AT_EPOCH": 97475, "BSTAR": 0.0028333313, "MEAN_MOTION_DOT": 7.651e-05, "MEAN_MOTION_DDOT": 0}, "tle": {"line1": "1 30288U 99025YZ  25340.16417162  .00007651  00000+0  28333-2 0  9997", "line2": "2 30288  99.3959  61.2682 0020195 342.2740  47.3189 14.32488273974757"}}, "geometry": {"type": "Point", "coordinates": [63.8424322841364, -11.335399330246915]}}, {"type": "Feature", "properties": {"norad_id": 30289, "name": "FENGYUN 1C DEB", "group": "fengyun-1c-debris", "lat": -78.67327897259587, "lon": -154.53280509194525, "alt_km": 810.987741081939, "timestamp": "2025-12-06T18:50:10.443687+00:00", "meta": {"OBJECT_NAME": "FENGYUN 1C DEB", "OBJECT_ID": "1999-025ZA", "EPOCH": "2025-12-06T01:35:23.060832", "MEAN_MOTION": 14.25731438, "ECCENTRICITY": 0.00370722, "INCLINATION": 98.9276, "RA_OF_ASC_NODE": 76.4336, "ARG_OF_PERICENTER": 350.2744, "MEAN_ANOMALY": 186.8728, "EPHEMERIS_TYPE": 0, "CLASSIFICATION_TYPE": "U", "NORAD_CAT_ID": 30289, "ELEMENT_SET_NO": 999, "REV_AT_EPOCH": 96986, "BSTAR": 0.0030446738, "MEAN_MOTION_DOT": 7.24e-05, "MEAN_MOTION_DDOT": 0}, "tle": {"line1": "1 30289U 99025ZA  25340.06623913  .00007240  00000+0  30447-2 0  9993", "line2": "2 30289  98.9276  76.4336 0037072 350.2744 186.8728 14.25731438969864"}}, "geometry": {"type": "Point", "coordinates": [-154.53280509194525, -78.67327897259587]}}, {"type": "Feature", "properties": {"norad_id": 30290, "name": "FENGYUN 1C DEB", "group": "fengyun-1c-debris", "lat": 33.161070047667685, "lon": 70.89349787857596, "alt_km": 635.8337941377404, "timestamp": "2025-12-06T18:50:10.443697+00:00", "meta": {"OBJECT_NAME": "FENGYUN 1C DEB", "OBJECT_ID": "1999-025ZB", "EPOCH": "2025-12-06T05:47:06.963648", "MEAN_MOTION": 14.74253712, "ECCENTRICITY": 0.00164663, "INCLINATION": 102.6234, "RA_OF_ASC_NODE": 78.4708, "ARG_OF_PERICENTER": 72.3832, "MEAN_ANOMALY": 317.2566, "EPHEMERIS_TYPE": 0, "CLASSIFICATION_TYPE": "U", "NORAD_CAT_ID": 30290, "ELEMENT_SET_NO": 999, "REV_AT_EPOCH": 97783, "BSTAR": 0.0093095321, "MEAN_MOTION_DOT": 0.00062196, "MEAN_MOTION_DDOT": 0}, "tle": {"line1": "1 30290U 99025ZB  25340.24105282  .00062196  00000+0  93095-2 0  9998", "line2": "2 30290 102.6234  78.4708 0016466  72.3832 317.2566 14.74253712977836"}}, "geometry": {"type": "Point", "coordinates": [70.89349787857596, 33.161070047667685]}}, {"type": "Feature", "properties": {"norad_id": 30291, "name": "FENGYUN 1C DEB", "group": "fengyun-1c-debris", "lat": -5.3866156172248365, "lon": 49.683252245011836, "alt_km": 780.2288093460029, "timestamp": "2025-12-06T18:50:10.443707+00:00", "meta": {"OBJECT_NAME": "FENGYUN 1C DEB", "OBJECT_ID": "1999-025ZC", "EPOCH": "2025-12-05T04:42:48.053664", "MEAN_MOTION": 14.5492707, "ECCENTRICITY": 0.01124726, "INCLINATION": 97.2332, "RA_OF_ASC_NODE": 228.9936, "ARG_OF_PERICENTER": 42.4828, "MEAN_ANOMALY": 107.0385, "EPHEMERIS_TYPE": 0, "CLASSIFICATION_TYPE": "U", "NORAD_CAT_ID": 30291, "ELEMENT_SET_NO": 999, "REV_AT_EPOCH": 97598, "BSTAR": 0.0054670736, "MEAN_MOTION_DOT": 0.0002563, "MEAN_MOTION_DDOT": 0}, "tle": {"line1": "1 30291U 99025ZC  25339.19638951  .00025630  00000+0  54671-2 0  9994", "line2": "2 30291  97.2332 228.9936 0112472  42.4828 107.0385 14.54927070975988"}}, "geometry": {"type": "Point", "coordinates": [49.683252245011836, -5.3866156172248365]}}, {"type": "Feature", "properties": {"norad_id": 30293, "name": "FENGYUN 1C DEB", "group": "fengyun-1c-debris", "lat": -32.64827430369961, "lon": -14.858241859677264, "alt_km": 726.1346453352144, "timestamp": "2025-12-06T18:50:10.443717+00:00", "meta": {"OBJECT_NAME": "FENGYUN 1C DEB", "OBJECT_ID": "1999-025ZE", "EPOCH": "2025-12-06T00:19:55.860672", "MEAN_MOTION": 14.48879306, "ECCENTRICITY": 0.00765994, "INCLINATION": 99.2541, "RA_OF_ASC_NODE": 170.2934, "ARG_OF_PERICENTER": 134.6336, "MEAN_ANOMALY": 18.2867, "EPHEMERIS_TYPE": 0, "CLASSIFICATION_TYPE": "U", "NORAD_CAT_ID": 30293, "ELEMENT_SET_NO": 999, "REV_AT_EPOCH": 98879, "BSTAR": 0.0014677798, "MEAN_MOTION_DOT": 5.712e-05, "MEAN_MOTION_DDOT": 0}, "tle": {"line1": "1 30293U 99025ZE  25340.01384098  .00005712  00000+0  14678-2 0  9991", "line2": "2 30293  99.2541 170.2934 0076599 134.6336  18.2867 14.48879306988790"}}, "geometry": {"type": "Point", "coordinates": [-14.858241859677264, -32.64827430369961]}}, {"type": "Feature", "properties": {"norad_id": 30294, "name": "FENGYUN 1C DEB", "group": "fengyun-1c-debris", "lat": 73.34539236831648, "lon": -60.209089666954235, "alt_km": 809.6444852319028, "timestamp": "2025-12-06T18:50:10.443727+00:00", "meta": {"OBJECT_NAME": "FENGYUN 1C DEB", "OBJECT_ID": "1999-025ZF", "EPOCH": "2025-12-05T22:32:19.243968", "MEAN_MOTION": 14.34916279, "ECCENTRICITY": 0.01979652, "INCLINATION": 98.3553, "RA_OF_ASC_NODE": 328.3963, "ARG_OF_PERICENTER": 330.0332, "MEAN_ANOMALY": 57.0936, "EPHEMERIS_TYPE": 0, "CLASSIFICATION_TYPE": "U", "NORAD_CAT_ID": 30294, "ELEMENT_SET_NO": 999, "REV_AT_EPOCH": 98439, "BSTAR": 0.0008257509, "MEAN_MOTION_DOT": 2.881e-05, "MEAN_MOTION_DDOT": 0}, "tle": {"line1": "1 30294U 99025ZF  25339.93911162  .00002881  00000+0  82575-3 0  9995", "line2": "2 30294  98.3553 328.3963 0197965 330.0332  57.0936 14.34916279984397"}}, "geometry": {"type": "Point", "coordinates": [-60.209089666954235, 73.34539236831648]}}]}